[
  {
    "OBJECT_NAME": "UITMSAT-2",
    "OBJECT_ID": "1998-067YC",
    "EPOCH": "2026-04-05T21:56:35.360160",
    "MEAN_MOTION": 15.56078993,
    "ECCENTRICITY": 0.00096858,
    "INCLINATION": 51.6302,
    "RA_OF_ASC_NODE": 295.9586,
    "ARG_OF_PERICENTER": 258.189,
    "MEAN_ANOMALY": 101.8015,
    "EPHEMERIS_TYPE": 0,
    "CLASSIFICATION_TYPE": "U",
    "NORAD_CAT_ID": 67686,
    "ELEMENT_SET_NO": 999,
    "REV_AT_EPOCH": 902,
    "BSTAR": 0.00088987206,
    "MEAN_MOTION_DOT": 0.00063417,
    "MEAN_MOTION_DDOT": 0
  },
  {
    "OBJECT_NAME": "HMU-SAT2",
    "OBJECT_ID": "1998-067YD",
    "EPOCH": "2026-04-05T22:34:39.999936",
    "MEAN_MOTION": 15.54622791,
    "ECCENTRICITY": 0.00091852,
    "INCLINATION": 51.6312,
    "RA_OF_ASC_NODE": 296.1356,
    "ARG_OF_PERICENTER": 261.1911,
    "MEAN_ANOMALY": 98.804,
    "EPHEMERIS_TYPE": 0,
    "CLASSIFICATION_TYPE": "U",
    "NORAD_CAT_ID": 67687,
    "ELEMENT_SET_NO": 999,
    "REV_AT_EPOCH": 894,
    "BSTAR": 0.00071428706,
    "MEAN_MOTION_DOT": 0.00048031,
    "MEAN_MOTION_DDOT": 0
  },
  {
    "OBJECT_NAME": "LEOPARD",
    "OBJECT_ID": "1998-067YE",
    "EPOCH": "2026-04-05T20:37:17.819328",
    "MEAN_MOTION": 15.55534164,
    "ECCENTRICITY": 0.00093344,
    "INCLINATION": 51.6303,
    "RA_OF_ASC_NODE": 296.3413,
    "ARG_OF_PERICENTER": 258.5898,
    "MEAN_ANOMALY": 101.4045,
    "EPHEMERIS_TYPE": 0,
    "CLASSIFICATION_TYPE": "U",
    "NORAD_CAT_ID": 67688,
    "ELEMENT_SET_NO": 999,
    "REV_AT_EPOCH": 893,
    "BSTAR": 0.0007758062,
    "MEAN_MOTION_DOT": 0.00054045,
    "MEAN_MOTION_DDOT": 0
  },
  {
    "OBJECT_NAME": "CREW DRAGON 12",
    "OBJECT_ID": "2026-031A",
    "EPOCH": "2026-04-05T19:28:26.282784",
    "MEAN_MOTION": 15.48791307,
    "ECCENTRICITY": 0.00063547,
    "INCLINATION": 51.6329,
    "RA_OF_ASC_NODE": 298.2672,
    "ARG_OF_PERICENTER": 276.3215,
    "MEAN_ANOMALY": 83.7049,
    "EPHEMERIS_TYPE": 0,
    "CLASSIFICATION_TYPE": "U",
    "NORAD_CAT_ID": 67796,
    "ELEMENT_SET_NO": 999,
    "REV_AT_EPOCH": 56052,
    "BSTAR": 0.00015990409,
    "MEAN_MOTION_DOT": 8.309e-5,
    "MEAN_MOTION_DDOT": 0
  },
  {
    "OBJECT_NAME": "PROGRESS-MS 33",
    "OBJECT_ID": "2026-058A",
    "EPOCH": "2026-04-05T19:28:26.282784",
    "MEAN_MOTION": 15.48791307,
    "ECCENTRICITY": 0.00063547,
    "INCLINATION": 51.6329,
    "RA_OF_ASC_NODE": 298.2672,
    "ARG_OF_PERICENTER": 276.3215,
    "MEAN_ANOMALY": 83.7049,
    "EPHEMERIS_TYPE": 0,
    "CLASSIFICATION_TYPE": "U",
    "NORAD_CAT_ID": 68319,
    "ELEMENT_SET_NO": 999,
    "REV_AT_EPOCH": 189,
    "BSTAR": 0.00015990409,
    "MEAN_MOTION_DOT": 8.309e-5,
    "MEAN_MOTION_DDOT": 0
  }
]
