UITMSAT-2               
1 67686U 98067YC  26095.91429815  .00063417  00000+0  88987-3 0  9997
2 67686  51.6302 295.9586 0009685 258.1890 101.8015 15.56078993  9027
HMU-SAT2                
1 67687U 98067YD  26095.94074074  .00048031  00000+0  71429-3 0  9992
2 67687  51.6312 296.1356 0009185 261.1911  98.8040 15.54622791  8942
LEOPARD                 
1 67688U 98067YE  26095.85923402  .00054045  00000+0  77581-3 0  9998
2 67688  51.6303 296.3413 0009334 258.5898 101.4045 15.55534164  8931
CREW DRAGON 12          
1 67796U 26031A   26095.81141531  .00008309  00000+0  15990-3 0  9999
2 67796  51.6329 298.2672 0006354 276.3215  83.7049 15.48791307560527
PROGRESS-MS 33          
1 68319U 26058A   26095.81141531  .00008309  00000+0  15990-3 0  9990
2 68319  51.6329 298.2672 0006354 276.3215  83.7049 15.48791307  1899
